0 METEOR 2-20
1 20826U 90086A   13282.45936955  .00000082  00000-0  60576-4 0  4031
2 20826 082.5223 289.5745 0014382 070.5852 094.1644 13.84132535163448
0 METEOR 2-20
1 20826U 90086A   13283.46952015  .00000076  00000-0  55057-4 0  4040
2 20826 082.5222 288.7695 0014347 067.9948 087.3773 13.84132614163589
0 METEOR 2-20
1 20826U 90086A   13284.48117843  .00000063  00000-0  43245-4 0  4058
2 20826 082.5221 287.9633 0014295 065.3780 088.1251 13.84132847163723
0 METEOR 2-20
1 20826U 90086A   13285.49532992  .00000049  00000-0  30418-4 0  4069
2 20826 082.5221 287.1550 0014266 062.6756 101.3753 13.84133057163868
0 METEOR 2-20
1 20826U 90086A   13286.50884152  .00000046  00000-0  27588-4 0  4072
2 20826 082.5221 286.3473 0014220 060.0785 111.3348 13.84133196164009
0 METEOR 2-20
1 20826U 90086A   13287.50933684  .00000034  00000-0  17404-4 0  4082
2 20826 082.5221 285.5498 0014168 057.4904 056.4631 13.84133268164140
0 METEOR 2-20
1 20826U 90086A   13288.52818951  .00000025  00000-0  90579-5 0  4090
2 20826 082.5223 284.7377 0014121 054.8036 093.1117 13.84133449164288
0 METEOR 2-20
1 20826U 90086A   13289.54053756  .00000025  00000-0  92347-5 0  4104
2 20826 082.5225 283.9308 0014097 052.0841 097.4005 13.84133570164425
0 METEOR 2-20
1 20826U 90086A   13290.55230314  .00000042  00000-0  24554-4 0  4118
2 20826 082.5226 283.1243 0014065 049.4163 098.7379 13.84133570164561
0 METEOR 2-20
1 20826U 90086A   13291.56260646  .00000054  00000-0  34808-4 0  4128
2 20826 082.5228 282.3191 0014040 046.7487 092.7930 13.84133498164700
0 METEOR 2-20
1 20826U 90086A   13292.57457959  .00000055  00000-0  36246-4 0  4135
2 20826 082.5230 281.5126 0013934 044.0563 095.1882 13.84133506164847
0 METEOR 2-20
1 20826U 90086A   13293.58591777  .00000056  00000-0  36845-4 0  4141
2 20826 082.5231 280.7067 0013855 041.3147 094.4706 13.84133527164988
0 METEOR 2-20
1 20826U 90086A   13294.59843183  .00000081  00000-0  59616-4 0  4154
2 20826 082.5232 279.8999 0013818 038.6097 099.5731 13.84133579165122
0 METEOR 2-20
1 20826U 90086A   13296.09785097  .00000078  00000-0  56585-4 0  4169
2 20826 082.5232 278.7051 0013727 034.5618 010.8421 13.84133625165339
